NORAD_CAT_ID,OBJECT_NAME,OBJECT_TYPE,EPOCH,MEAN_MOTION,ECCENTRICITY,INCLINATION,RA_OF_ASC_NODE,ARG_OF_PERICENTER,MEAN_ANOMALY,BSTAR,MEAN_MOTION_DOT,MEAN_MOTION_DDOT,TLE_LINE0,TLE_LINE1,TLE_LINE2,SEMIMAJOR_AXIS,PERIOD,APOGEE,PERIGEE,DECAYED
50186.0,STARLINK-3274,PAYLOAD,2022-11-16 05:01:50,15.08841479,0.0002656,53.2183,288.6932,34.008,326.1082,0.00017922,2.565e-05,0.0,0 STARLINK-3274,1 50186U 21125AG  22320.20960905  .00002565  00000-0  17922-3 0  9993,2 50186  53.2183 288.6932 0002656  34.0080 326.1082 15.08841479 53384,6917.876,95.437,541.578,537.903,0.0
50186.0,STARLINK-3274,PAYLOAD,2022-11-16 09:47:59,15.08833554,0.0002692,53.218,287.8001,30.3926,329.7222,3.0565e-05,1.98e-06,0.0,0 STARLINK-3274,1 50186U 21125AG  22320.40833316  .00000198  00000-0  30565-4 0  9999,2 50186  53.2180 287.8001 0002692  30.3926 329.7222 15.08833554 53411,6917.9,95.438,541.627,537.903,0.0
50186.0,STARLINK-3274,PAYLOAD,2022-11-16 14:34:09,15.08834258,0.0002696,53.218,286.9084,30.4185,329.6963,3.1244e-05,2.09e-06,0.0,0 STARLINK-3274,1 50186U 21125AG  22320.60705350  .00000209  00000-0  31244-4 0  9995,2 50186  53.2180 286.9084 0002696  30.4185 329.6963 15.08834258 53923,6917.898,95.438,541.628,537.898,0.0
50186.0,STARLINK-3274,PAYLOAD,2022-11-17 01:41:51,15.08841083,0.0002679,53.2178,284.8267,31.1362,328.9789,0.00013058,1.7899999999999998e-05,0.0,0 STARLINK-3274,1 50186U 21125AG  22321.07072977  .00001790  00000-0  13058-3 0  9997,2 50186  53.2178 284.8267 0002679  31.1362 328.9789 15.08841083 53513,6917.877,95.437,541.595,537.889,0.0
50186.0,STARLINK-3274,PAYLOAD,2022-11-17 09:38:47,15.0883261,0.0002794,53.2179,283.3402,32.6402,327.4762,2.1071e-07,-2.85e-06,0.0,0 STARLINK-3274,1 50186U 21125AG  22321.40193546 -.00000285  00000-0  21071-6 0  9996,2 50186  53.2179 283.3402 0002794  32.6402 327.4762 15.08832610 53564,6917.903,95.438,541.701,537.835,0.0
50186.0,STARLINK-3274,PAYLOAD,2022-11-18 06:18:47,15.08844525,0.0002645,53.2175,279.4741,33.0555,327.0602,0.00013545,1.868e-05,0.0,0 STARLINK-3274,1 50186U 21125AG  22322.26305076  .00001868  00000-0  13545-3 0  9995,2 50186  53.2175 279.4741 0002645  33.0555 327.0602 15.08844525 53692,6917.8669999999975,95.437,541.561,537.9019999999998,0.0
50186.0,STARLINK-3274,PAYLOAD,2022-11-19 09:20:20,15.08850252,0.0002594,53.2173,274.41900000000004,34.6782,325.4378,0.00034979,5.285e-05,0.0,0 STARLINK-3274,1 50186U 21125AG  22323.38913060  .00005285  00000-0  34979-3 0  9998,2 50186  53.2173 274.4190 0002594  34.6782 325.4378 15.08850252 54344,6917.849,95.437,541.509,537.92,0.0
50186.0,STARLINK-3274,PAYLOAD,2022-11-19 14:06:30,15.08841654,0.0002631,53.2176,273.526,34.5243,325.5919,0.00015099,2.116e-05,0.0,0 STARLINK-3274,1 50186U 21125AG  22323.58785310  .00002116  00000-0  15099-3 0  9997,2 50186  53.2176 273.5260 0002631  34.5243 325.5919 15.08841654 53895,6917.875,95.437,541.56,537.92,0.0
50186.0,STARLINK-3274,PAYLOAD,2022-11-20 07:35:45,15.08837379,0.000284,53.2175,270.2559,32.2968,327.8198,-7.636599999999999e-06,-4.1e-06,0.0,0 STARLINK-3274,1 50186U 21125AG  22324.31649392 -.00000410  00000-0 -76366-5 0  9991,2 50186  53.2175 270.2559 0002840  32.2968 327.8198 15.08837379 54489,6917.888000000001,95.438,541.7180000000002,537.789,0.0
50186.0,STARLINK-3274,PAYLOAD,2022-11-20 20:18:49,15.08840792,0.0002618,53.2175,267.8767,30.811,329.3035,6.2092e-05,7.000000000000003e-06,0.0,0 STARLINK-3274,1 50186U 21125AG  22324.84641183  .00000700  00000-0  62092-4 0  9999,2 50186  53.2175 267.8767 0002618  30.8110 329.3035 15.08840792 54567,6917.878000000002,95.438,541.554,537.932,0.0
50186.0,STARLINK-3274,PAYLOAD,2022-11-21 05:51:08,15.08844841,0.0002668,53.2175,266.0941,29.2287,330.8854,0.0002207,3.226e-05,0.0,0 STARLINK-3274,1 50186U 21125AG  22325.24385206  .00003226  00000-0  22070-3 0  9992,2 50186  53.2175 266.0941 0002668  29.2287 330.8854 15.08844841 54143,6917.866,95.437,541.576,537.885,0.0
50186.0,STARLINK-3274,PAYLOAD,2022-11-21 07:26:32,15.08839821,0.0002616,53.2171,265.7962,28.7788,331.3348,7.3715e-05,8.85e-06,0.0,0 STARLINK-3274,1 50186U 21125AG  22325.31009345  .00000885  00000-0  73715-4 0  9998,2 50186  53.2171 265.7962 0002616  28.7788 331.3348 15.08839821 54631,6917.880999999999,95.438,541.556,537.936,0.0
50186.0,STARLINK-3274,PAYLOAD,2022-11-21 13:48:04,15.08843282,0.0002628,53.2177,264.6065,32.6708,327.4446,8.903700000000001e-05,1.129e-05,0.0,0 STARLINK-3274,1 50186U 21125AG  22325.57505360  .00001129  00000-0  89037-4 0  9990,2 50186  53.2177 264.6065 0002628  32.6708 327.4446 15.08843282 54673,6917.87,95.437,541.553,537.9169999999998,0.0
50186.0,STARLINK-3274,PAYLOAD,2022-11-22 04:06:32,15.08841012,0.0002602,53.2178,261.9298,29.5191,330.5948,8.7915e-05,1.111e-05,0.0,0 STARLINK-3274,1 50186U 21125AG  22326.17121335  .00001111  00000-0  87915-4 0  9997,2 50186  53.2178 261.9298 0002602  29.5191 330.5948 15.08841012 54283,6917.877,95.437,541.5419999999998,537.942,0.0
50186.0,STARLINK-3274,PAYLOAD,2022-11-22 07:17:19,15.08839515,0.0002581,53.2178,261.3352,29.4937,330.62,6.6232e-05,7.66e-06,0.0,0 STARLINK-3274,1 50186U 21125AG  22326.30369411  .00000766  00000-0  66232-4 0  9995,2 50186  53.2178 261.3352 0002581  29.4937 330.6200 15.08839515 54783,6917.882,95.438,541.5319999999998,537.961,0.0
50186.0,STARLINK-3274,PAYLOAD,2022-11-23 05:32:43,15.0883335,0.0002615,53.2179,257.1723,30.2551,329.8592,-5.8533e-05,-1.22e-05,0.0,0 STARLINK-3274,1 50186U 21125AG  22327.23105846 -.00001220  00000-0 -58533-4 0  9991,2 50186  53.2179 257.1723 0002615  30.2551 329.8592 15.08833350 54447,6917.901,95.438,541.575,537.957,0.0
50186.0,STARLINK-3274,PAYLOAD,2022-11-23 11:54:15,15.08837229,0.0002626,53.2179,255.983,30.2071,329.9072,-4.1977e-06,-3.55e-06,0.0,0 STARLINK-3274,1 50186U 21125AG  22327.49601708 -.00000355  00000-0 -41977-5 0  9990,2 50186  53.2179 255.9830 0002626  30.2071 329.9072 15.08837229 54961,6917.889,95.438,541.57,537.937,0.0
50186.0,STARLINK-3274,PAYLOAD,2022-11-24 05:23:30,15.08844251,0.000268,53.2184,252.7125,29.8321,330.2823,9.6763e-05,1.252e-05,0.0,0 STARLINK-3274,1 50186U 21125AG  22328.22465462  .00001252  00000-0  96763-4 0  9994,2 50186  53.2184 252.7125 0002680  29.8321 330.2823 15.08844251 54592,6917.8669999999975,95.437,541.586,537.878,0.0
50186.0,STARLINK-3274,PAYLOAD,2022-11-24 11:45:03,15.08831826,0.0002729,53.2181,251.5232,32.5151,327.6009,2.1761e-05,5.8e-07,0.0,0 STARLINK-3274,1 50186U 21125AG  22328.48962297  .00000058  00000-0  21761-4 0  9999,2 50186  53.2181 251.5232 0002729  32.5151 327.6009 15.08831826 54636,6917.905,95.438,541.658,537.882,0.0
50186.0,STARLINK-3274,PAYLOAD,2022-11-24 19:41:59,15.08835528,0.0002731,53.2189,250.0359,31.5253,328.5902,5.408100000000001e-05,5.72e-06,0.0,0 STARLINK-3274,1 50186U 21125AG  22328.82082222  .00000572  00000-0  54081-4 0  9990,2 50186  53.2189 250.0359 0002731  31.5253 328.5902 15.08835528 55167,6917.894,95.438,541.648,537.87,0.0
50186.0,STARLINK-3274,PAYLOAD,2022-11-25 05:14:17,15.08842295,0.0002725,53.2178,248.2523,31.9074,328.2083,0.00024292,3.58e-05,0.0,0 STARLINK-3274,1 50186U 21125AG  22329.21825994  .00003580  00000-0  24292-3 0  9997,2 50186  53.2178 248.2523 0002725  31.9074 328.2083 15.08842295 54744,6917.873000000001,95.437,541.623,537.8530000000002,0.0
50186.0,STARLINK-3274,PAYLOAD,2022-11-25 06:49:40,15.08845641,0.0002701,53.2178,247.955,32.304,327.8117,0.00027276,4.056e-05,0.0,0 STARLINK-3274,1 50186U 21125AG  22329.28449861  .00004056  00000-0  27276-3 0  9993,2 50186  53.2178 247.9550 0002701  32.3040 327.8117 15.08845641 55238,6917.863,95.437,541.597,537.86,0.0
50186.0,STARLINK-3274,PAYLOAD,2022-11-25 21:08:08,15.08852805,0.0002684,53.2176,245.2788,33.9217,326.1946,0.00031967,4.805e-05,0.0,0 STARLINK-3274,1 50186U 21125AG  22329.88065517  .00004805  00000-0  31967-3 0  9995,2 50186  53.2176 245.2788 0002684  33.9217 326.1946 15.08852805 55325,6917.840999999999,95.437,541.563,537.85,0.0
50186.0,STARLINK-3274,PAYLOAD,2022-11-26 11:26:36,15.08858448,0.000271,53.2172,242.6028,33.8869,326.2296,0.00039978,6.083e-05,0.0,0 STARLINK-3274,1 50186U 21125AG  22330.47681025  .00006083  00000-0  39978-3 0  9990,2 50186  53.2172 242.6028 0002710  33.8869 326.2296 15.08858448 54935,6917.824000000001,95.436,541.564,537.814,0.0
50186.0,STARLINK-3274,PAYLOAD,2022-11-26 19:23:31,15.08855178,0.0002692,53.2171,241.1157,34.9112,325.2056,0.00024121,3.554e-05,0.0,0 STARLINK-3274,1 50186U 21125AG  22330.80800851  .00003554  00000-0  24121-3 0  9991,2 50186  53.2171 241.1157 0002692  34.9112 325.2056 15.08855178 55462,6917.834,95.437,541.561,537.837,0.0
50186.0,STARLINK-3274,PAYLOAD,2022-11-27 03:20:27,15.08842011,0.000259,53.2172,239.6293,31.324,328.7906,-7.212600000000001e-05,-1.436e-05,0.0,0 STARLINK-3274,1 50186U 21125AG  22331.13921088 -.00001436  00000-0 -72126-4 0  9992,2 50186  53.2172 239.6293 0002590  31.3240 328.7906 15.08842011 55033,6917.874,95.437,541.531,537.948,0.0
50186.0,STARLINK-3274,PAYLOAD,2022-11-27 11:17:23,15.08843224,0.0002659,53.2183,238.1426,32.0261,328.0893,6.5278e-06,-1.85e-06,0.0,0 STARLINK-3274,1 50186U 21125AG  22331.47041384 -.00000185  00000-0  65278-5 0  9991,2 50186  53.2183 238.1426 0002659  32.0261 328.0893 15.08843224 55567,6917.871,95.437,541.575,537.896,0.0
50186.0,STARLINK-3274,PAYLOAD,2022-11-27 20:49:43,15.08831177,0.0002694,53.2184,236.3584,33.4862,326.63,-8.434399999999999e-05,-1.63e-05,0.0,0 STARLINK-3274,1 50186U 21125AG  22331.86786470 -.00001630  00000-0 -84344-4 0  9997,2 50186  53.2184 236.3584 0002694  33.4862 326.6300 15.08831177 55622,6917.906999999997,95.438,541.636,537.909,0.0
50186.0,STARLINK-3274,PAYLOAD,2022-11-27 22:25:06,15.08832905,0.0002679,53.2186,236.0607,34.0845,326.0318,-6.9171e-05,-1.389e-05,0.0,0 STARLINK-3274,1 50186U 21125AG  22331.93410334 -.00001389  00000-0 -69171-4 0  9990,2 50186  53.2186 236.0607 0002679  34.0845 326.0318 15.08832905 55159,6917.901999999999,95.438,541.62,537.914,0.0
